{
  "type": "FeatureCollection",
  "features": [
    {
      "type": "Feature",
      "properties": {
        "norad_id": 31005,
        "name": "FENGYUN 1C DEB",
        "group": "fengyun-1c-debris",
        "lat": -25.502236908819334,
        "lon": -71.90325888917587,
        "alt_km": 1064.6514659096174,
        "timestamp": "2025-12-03T17:47:50.997413+00:00",
        "meta_object_name": "FENGYUN 1C DEB",
        "meta_object_id": "1999-025BCX",
        "meta_epoch": "2025-12-03T08:26:28.709952",
        "meta_mean_motion": 13.83241759,
        "meta_eccentricity": 0.0180431,
        "meta_inclination": 98.6134,
        "meta_ra_of_asc_node": 111.8858,
        "meta_arg_of_pericenter": 351.1428,
        "meta_mean_anomaly": 75.5598,
        "meta_ephemeris_type": 0,
        "meta_classification_type": "U",
        "meta_norad_cat_id": 31005,
        "meta_element_set_no": 999,
        "meta_rev_at_epoch": 94151,
        "meta_bstar": 0.0013626,
        "meta_mean_motion_dot": 1.655e-05,
        "meta_mean_motion_ddot": 0,
        "tle_line1": "1 31005U 99025BCX 25337.35172118  .00001655  00000+0  13626-2 0  9998",
        "tle_line2": "2 31005  98.6134 111.8858 0180431 351.1428  75.5598 13.83241759941517"
      },
      "geometry": {
        "type": "Point",
        "coordinates": [
          -71.90325888917587,
          -25.502236908819334
        ]
      }
    },
    {
      "type": "Feature",
      "properties": {
        "norad_id": 31007,
        "name": "FENGYUN 1C DEB",
        "group": "fengyun-1c-debris",
        "lat": -1.1623677088685673,
        "lon": -30.04756208204518,
        "alt_km": 682.1997100720209,
        "timestamp": "2025-12-03T17:47:50.997423+00:00",
        "meta_object_name": "FENGYUN 1C DEB",
        "meta_object_id": "1999-025BCZ",
        "meta_epoch": "2025-12-03T04:37:45.637248",
        "meta_mean_motion": 14.58327035,
        "meta_eccentricity": 0.0068059,
        "meta_inclination": 98.0869,
        "meta_ra_of_asc_node": 329.2534,
        "meta_arg_of_pericenter": 67.1662,
        "meta_mean_anomaly": 293.6706,
        "meta_ephemeris_type": 0,
        "meta_classification_type": "U",
        "meta_norad_cat_id": 31007,
        "meta_element_set_no": 999,
        "meta_rev_at_epoch": 97955,
        "meta_bstar": 0.0025651,
        "meta_mean_motion_dot": 0.00012225,
        "meta_mean_motion_ddot": 0,
        "tle_line1": "1 31007U 99025BCZ 25337.19288932  .00012225  00000+0  25651-2 0  9990",
        "tle_line2": "2 31007  98.0869 329.2534 0068059  67.1662 293.6706 14.58327035979553"
      },
      "geometry": {
        "type": "Point",
        "coordinates": [
          -30.04756208204518,
          -1.1623677088685673
        ]
      }
    },
    {
      "type": "Feature",
      "properties": {
        "norad_id": 31009,
        "name": "FENGYUN 1C DEB",
        "group": "fengyun-1c-debris",
        "lat": -9.87971030350786,
        "lon": -24.630214226522135,
        "alt_km": 894.6197024341909,
        "timestamp": "2025-12-03T17:47:50.997433+00:00",
        "meta_object_name": "FENGYUN 1C DEB",
        "meta_object_id": "1999-025BDB",
        "meta_epoch": "2025-12-03T11:42:50.607936",
        "meta_mean_motion": 14.00357136,
        "meta_eccentricity": 0.0052681,
        "meta_inclination": 98.8979,
        "meta_ra_of_asc_node": 333.5597,
        "meta_arg_of_pericenter": 263.5308,
        "meta_mean_anomaly": 248.8358,
        "meta_ephemeris_type": 0,
        "meta_classification_type": "U",
        "meta_norad_cat_id": 31009,
        "meta_element_set_no": 999,
        "meta_rev_at_epoch": 95731,
        "meta_bstar": 0.00021689,
        "meta_mean_motion_dot": 2.81e-06,
        "meta_mean_motion_ddot": 0,
        "tle_line1": "1 31009U 99025BDB 25337.48808574  .00000281  00000+0  21689-3 0  9991",
        "tle_line2": "2 31009  98.8979 333.5597 0052681 263.5308 248.8358 14.00357136957312"
      },
      "geometry": {
        "type": "Point",
        "coordinates": [
          -24.630214226522135,
          -9.87971030350786
        ]
      }
    },
    {
      "type": "Feature",
      "properties": {
        "norad_id": 31010,
        "name": "FENGYUN 1C DEB",
        "group": "fengyun-1c-debris",
        "lat": -50.69786882960195,
        "lon": 136.4287479704286,
        "alt_km": 785.0524559256746,
        "timestamp": "2025-12-03T17:47:50.997443+00:00",
        "meta_object_name": "FENGYUN 1C DEB",
        "meta_object_id": "1999-025BDC",
        "meta_epoch": "2025-12-02T08:21:00.416736",
        "meta_mean_motion": 14.25532828,
        "meta_eccentricity": 0.01131903,
        "meta_inclination": 101.7255,
        "meta_ra_of_asc_node": 119.8728,
        "meta_arg_of_pericenter": 21.7171,
        "meta_mean_anomaly": 338.8742,
        "meta_ephemeris_type": 0,
        "meta_classification_type": "U",
        "meta_norad_cat_id": 31010,
        "meta_element_set_no": 999,
        "meta_rev_at_epoch": 95481,
        "meta_bstar": 0.0038531931,
        "meta_mean_motion_dot": 9.692e-05,
        "meta_mean_motion_ddot": 0,
        "tle_line1": "1 31010U 99025BDC 25336.34792149  .00009692  00000+0  38532-2 0  9996",
        "tle_line2": "2 31010 101.7255 119.8728 0113190  21.7171 338.8742 14.25532828954810"
      },
      "geometry": {
        "type": "Point",
        "coordinates": [
          136.4287479704286,
          -50.69786882960195
        ]
      }
    },
    {
      "type": "Feature",
      "properties": {
        "norad_id": 31012,
        "name": "FENGYUN 1C DEB",
        "group": "fengyun-1c-debris",
        "lat": -14.504515881755276,
        "lon": -122.01435221287491,
        "alt_km": 780.8346059582764,
        "timestamp": "2025-12-03T17:47:50.997454+00:00",
        "meta_object_name": "FENGYUN 1C DEB",
        "meta_object_id": "1999-025BDE",
        "meta_epoch": "2025-12-03T11:58:46.598880",
        "meta_mean_motion": 14.27846843,
        "meta_eccentricity": 0.0081378,
        "meta_inclination": 98.9112,
        "meta_ra_of_asc_node": 235.4122,
        "meta_arg_of_pericenter": 278.5723,
        "meta_mean_anomaly": 260.6441,
        "meta_ephemeris_type": 0,
        "meta_classification_type": "U",
        "meta_norad_cat_id": 31012,
        "meta_element_set_no": 999,
        "meta_rev_at_epoch": 97615,
        "meta_bstar": 0.000322,
        "meta_mean_motion_dot": 7.78e-06,
        "meta_mean_motion_ddot": 0,
        "tle_line1": "1 31012U 99025BDE 25337.49915045  .00000778  00000+0  32200-3 0  9990",
        "tle_line2": "2 31012  98.9112 235.4122 0081378 278.5723 260.6441 14.27846843976157"
      },
      "geometry": {
        "type": "Point",
        "coordinates": [
          -122.01435221287491,
          -14.504515881755276
        ]
      }
    },
    {
      "type": "Feature",
      "properties": {
        "norad_id": 31014,
        "name": "FENGYUN 1C DEB",
        "group": "fengyun-1c-debris",
        "lat": 67.78780435100775,
        "lon": 156.12130610692358,
        "alt_km": 911.4778194789269,
        "timestamp": "2025-12-03T17:47:50.997463+00:00",
        "meta_object_name": "FENGYUN 1C DEB",
        "meta_object_id": "1999-025BDG",
        "meta_epoch": "2025-12-03T05:19:20.083008",
        "meta_mean_motion": 13.98479987,
        "meta_eccentricity": 0.0087349,
        "meta_inclination": 98.8662,
        "meta_ra_of_asc_node": 313.1456,
        "meta_arg_of_pericenter": 219.7614,
        "meta_mean_anomaly": 156.0812,
        "meta_ephemeris_type": 0,
        "meta_classification_type": "U",
        "meta_norad_cat_id": 31014,
        "meta_element_set_no": 999,
        "meta_rev_at_epoch": 95703,
        "meta_bstar": 0.00038595,
        "meta_mean_motion_dot": 5.28e-06,
        "meta_mean_motion_ddot": 0,
        "tle_line1": "1 31014U 99025BDG 25337.22176022  .00000528  00000+0  38595-3 0  9993",
        "tle_line2": "2 31014  98.8662 313.1456 0087349 219.7614 156.0812 13.98479987957036"
      },
      "geometry": {
        "type": "Point",
        "coordinates": [
          156.12130610692358,
          67.78780435100775
        ]
      }
    },
    {
      "type": "Feature",
      "properties": {
        "norad_id": 31016,
        "name": "FENGYUN 1C DEB",
        "group": "fengyun-1c-debris",
        "lat": -81.54513685225217,
        "lon": 86.92517197277947,
        "alt_km": 728.6456359064387,
        "timestamp": "2025-12-03T17:47:50.997473+00:00",
        "meta_object_name": "FENGYUN 1C DEB",
        "meta_object_id": "1999-025BDJ",
        "meta_epoch": "2025-12-03T08:13:01.747776",
        "meta_mean_motion": 14.30468358,
        "meta_eccentricity": 0.0112189,
        "meta_inclination": 98.4374,
        "meta_ra_of_asc_node": 353.4483,
        "meta_arg_of_pericenter": 302.1809,
        "meta_mean_anomaly": 73.5512,
        "meta_ephemeris_type": 0,
        "meta_classification_type": "U",
        "meta_norad_cat_id": 31016,
        "meta_element_set_no": 999,
        "meta_rev_at_epoch": 97336,
        "meta_bstar": 0.00042529,
        "meta_mean_motion_dot": 1.141e-05,
        "meta_mean_motion_ddot": 0,
        "tle_line1": "1 31016U 99025BDJ 25337.34238134  .00001141  00000+0  42529-3 0  9995",
        "tle_line2": "2 31016  98.4374 353.4483 0112189 302.1809  73.5512 14.30468358973366"
      },
      "geometry": {
        "type": "Point",
        "coordinates": [
          86.92517197277947,
          -81.54513685225217
        ]
      }
    }
  ]
}